{
  "links" : {
    "next" : "https://api.nasa.gov/neo/rest/v1/feed?start_date=2008-05-16&end_date=2008-05-16&detailed=true&api_key=t0TVs3DtDT2H8Oy2Zy8m2eVrNsAVKAexjcZXUckd",
    "prev" : "https://api.nasa.gov/neo/rest/v1/feed?start_date=2008-05-14&end_date=2008-05-14&detailed=true&api_key=t0TVs3DtDT2H8Oy2Zy8m2eVrNsAVKAexjcZXUckd",
    "self" : "https://api.nasa.gov/neo/rest/v1/feed?start_date=2008-05-15&end_date=2008-05-15&detailed=true&api_key=t0TVs3DtDT2H8Oy2Zy8m2eVrNsAVKAexjcZXUckd"
  },
  "element_count" : 2,
  "near_earth_objects" : {
    "2008-05-15" : [ {
      "links" : {
        "self" : "https://api.nasa.gov/neo/rest/v1/neo/2418094?api_key=t0TVs3DtDT2H8Oy2Zy8m2eVrNsAVKAexjcZXUckd"
      },
      "neo_reference_id" : "2418094",
      "name" : "418094 (2007 WV4)",
      "nasa_jpl_url" : "http://ssd.jpl.nasa.gov/sbdb.cgi?sstr=2418094",
      "absolute_magnitude_h" : 19.3,
      "estimated_diameter" : {
        "kilometers" : {
          "estimated_diameter_min" : 0.3669061375,
          "estimated_diameter_max" : 0.8204270649
        },
        "meters" : {
          "estimated_diameter_min" : 366.9061375314,
          "estimated_diameter_max" : 820.4270648822
        },
        "miles" : {
          "estimated_diameter_min" : 0.2279848336,
          "estimated_diameter_max" : 0.5097895857
        },
        "feet" : {
          "estimated_diameter_min" : 1203.7603322587,
          "estimated_diameter_max" : 2691.6899315481
        }
      },
      "is_potentially_hazardous_asteroid" : true,
      "close_approach_data" : [ {
        "close_approach_date" : "2008-05-15",
        "epoch_date_close_approach" : 1210834800000,
        "relative_velocity" : {
          "kilometers_per_second" : "20.5083654359",
          "kilometers_per_hour" : "73830.1155693682",
          "miles_per_hour" : "45875.1626436443"
        },
        "miss_distance" : {
          "astronomical" : "0.3119760209",
          "lunar" : "121.3586730957",
          "kilometers" : "46670948",
          "miles" : "28999982"
        },
        "orbiting_body" : "Earth"
      } ],
      "orbital_data" : {
        "orbit_id" : "72",
        "orbit_determination_date" : "2017-07-01 06:49:29",
        "orbit_uncertainty" : "0",
        "minimum_orbit_intersection" : ".0173652",
        "jupiter_tisserand_invariant" : "4.253",
        "epoch_osculation" : "2458000.5",
        "eccentricity" : ".4411406951438879",
        "semi_major_axis" : "1.486319937030881",
        "inclination" : "38.33273767242434",
        "ascending_node_longitude" : "249.90465299",
        "orbital_period" : "661.8611382388601",
        "perihelion_distance" : ".8306437268028587",
        "perihelion_argument" : "297.6302583472847",
        "aphelion_distance" : "2.141996147258904",
        "perihelion_time" : "2457860.148476058292",
        "mean_anomaly" : "76.34010474381468",
        "mean_motion" : ".5439207398668556",
        "equinox" : "J2000"
      }
    }, {
      "links" : {
        "self" : "https://api.nasa.gov/neo/rest/v1/neo/3350777?api_key=t0TVs3DtDT2H8Oy2Zy8m2eVrNsAVKAexjcZXUckd"
      },
      "neo_reference_id" : "3350777",
      "name" : "(2006 UA)",
      "nasa_jpl_url" : "http://ssd.jpl.nasa.gov/sbdb.cgi?sstr=3350777",
      "absolute_magnitude_h" : 20.0,
      "estimated_diameter" : {
        "kilometers" : {
          "estimated_diameter_min" : 0.2658,
          "estimated_diameter_max" : 0.5943468684
        },
        "meters" : {
          "estimated_diameter_min" : 265.8,
          "estimated_diameter_max" : 594.3468684194
        },
        "miles" : {
          "estimated_diameter_min" : 0.1651604118,
          "estimated_diameter_max" : 0.369309908
        },
        "feet" : {
          "estimated_diameter_min" : 872.047272,
          "estimated_diameter_max" : 1949.9569797852
        }
      },
      "is_potentially_hazardous_asteroid" : false,
      "close_approach_data" : [ {
        "close_approach_date" : "2008-05-15",
        "epoch_date_close_approach" : 1210834800000,
        "relative_velocity" : {
          "kilometers_per_second" : "10.1591602702",
          "kilometers_per_hour" : "36572.9769726851",
          "miles_per_hour" : "22725.0256083887"
        },
        "miss_distance" : {
          "astronomical" : "0.2231691134",
          "lunar" : "86.812789917",
          "kilometers" : "33385626",
          "miles" : "20744866"
        },
        "orbiting_body" : "Earth"
      } ],
      "orbital_data" : {
        "orbit_id" : "32",
        "orbit_determination_date" : "2017-04-06 09:07:53",
        "orbit_uncertainty" : "1",
        "minimum_orbit_intersection" : ".0718663",
        "jupiter_tisserand_invariant" : "4.321",
        "epoch_osculation" : "2458000.5",
        "eccentricity" : ".4861032122323588",
        "semi_major_axis" : "1.528885553074842",
        "inclination" : "14.32729156948299",
        "ascending_node_longitude" : "23.20722839242471",
        "orbital_period" : "690.4955629707003",
        "perihelion_distance" : ".785689374589515",
        "perihelion_argument" : "270.7734009041169",
        "aphelion_distance" : "2.272081731560169",
        "perihelion_time" : "2458102.631040990000",
        "mean_anomaly" : "306.7524822343283",
        "mean_motion" : ".5213646825638991",
        "equinox" : "J2000"
      }
    } ]
  }
}